{
  "type": "FeatureCollection",
  "name": "jinju-apartment",
  "crs": {
    "type": "name",
    "properties": { "name": "urn:ogc:def:crs:OGC:1.3:CRS84" }
  },
  "features": [
    {
      "type": "Feature",
      "properties": {
        "id": 1,
        "complexCode": "48170100017558",
        "name": "가좌주공2차아파트",
        "price": "1억2천~1억6천"
      },
      "geometry": {
        "type": "MultiPolygon",
        "coordinates": [
          [
            [
              [128.108013222349399, 35.161750362238458],
              [128.107992035601939, 35.161825418968043],
              [128.108507579790313, 35.162015947278256],
              [128.108578202281819, 35.162737641375884],
              [128.109291489446576, 35.162916620521123],
              [128.109213804705831, 35.163251483670543],
              [128.110774561769205, 35.163557478101545],
              [128.111085300732071, 35.162818470716054],
              [128.110852246509921, 35.162754961955542],
              [128.111007615991326, 35.162246890086209],
              [128.111494911183058, 35.162362361244298],
              [128.111749152152669, 35.161623342999825],
              [128.11064037903526, 35.161328888547374],
              [128.108994874982017, 35.160884318040708],
              [128.108839505500612, 35.161265378623774],
              [128.108218027574878, 35.161086395844968],
              [128.108013222349399, 35.161750362238458]
            ]
          ]
        ]
      }
    }
  ]
}
